STARLINK-2287
1 18035C 21024BL  21326.17158007  .00788223  00000-0  48183-2 0  3262
2 18035  53.0541  77.8399 0006079 290.6673 142.6632 15.75858190    12
